{
    "links": {
        "self": "http://www.neowsapp.com/rest/v1/neo/3892704?api_key=iIulBulltgU6a56xZRHN4H3l9WmuAYTsLGpBGhQ2"
    },
    "id": "3892704",
    "neo_reference_id": "3892704",
    "name": "(2019 VV3)",
    "designation": "2019 VV3",
    "nasa_jpl_url": "http://ssd.jpl.nasa.gov/sbdb.cgi?sstr=3892704",
    "absolute_magnitude_h": 27.2,
    "estimated_diameter": {
        "kilometers": {
            "estimated_diameter_min": 0.0096506147,
            "estimated_diameter_max": 0.0215794305
        },
        "meters": {
            "estimated_diameter_min": 9.6506146958,
            "estimated_diameter_max": 21.5794304844
        },
        "miles": {
            "estimated_diameter_min": 0.0059966121,
            "estimated_diameter_max": 0.0134088323
        },
        "feet": {
            "estimated_diameter_min": 31.6621227185,
            "estimated_diameter_max": 70.7986587106
        }
    },
    "is_potentially_hazardous_asteroid": false,
    "close_approach_data": [
        {
            "close_approach_date": "2019-10-27",
            "close_approach_date_full": "2019-Oct-27 18:52",
            "epoch_date_close_approach": 1572202320000,
            "relative_velocity": {
                "kilometers_per_second": "9.8818170322",
                "kilometers_per_hour": "35574.5413158382",
                "miles_per_hour": "22104.6365192774"
            },
            "miss_distance": {
                "astronomical": "0.0237295679",
                "lunar": "9.2308019131",
                "kilometers": "3549892.813860373",
                "miles": "2205801.1101762274"
            },
            "orbiting_body": "Earth"
        }
    ],
    "orbital_data": {
        "orbit_id": "1",
        "orbit_determination_date": "2019-11-06 15:42:27",
        "first_observation_date": "2019-11-05",
        "last_observation_date": "2019-11-06",
        "data_arc_in_days": 1,
        "observations_used": 11,
        "orbit_uncertainty": "9",
        "minimum_orbit_intersection": ".0123005",
        "jupiter_tisserand_invariant": "3.320",
        "epoch_osculation": "2458793.5",
        "eccentricity": ".5815791943242727",
        "semi_major_axis": "2.328433528303982",
        "inclination": "4.049838822548911",
        "ascending_node_longitude": "38.18865344353926",
        "orbital_period": "1297.759429976728",
        "perihelion_distance": ".9742650328753285",
        "perihelion_argument": "329.1515815522816",
        "aphelion_distance": "3.682602023732636",
        "perihelion_time": "2458763.975139648679",
        "mean_anomaly": "8.190231163772905",
        "mean_motion": ".2774011821331598",
        "equinox": "J2000",
        "orbit_class": {
            "orbit_class_type": "APO",
            "orbit_class_description": "Near-Earth asteroid orbits which cross the Earth’s orbit similar to that of 1862 Apollo",
            "orbit_class_range": "a (semi-major axis) > 1.0 AU; q (perihelion) < 1.017 AU"
        }
    },
    "is_sentry_object": false
}